     3.00           N: GNSS NAV DATA    E: Galileo          RINEX VERSION / TYPE
PREC2NAV                                20121215 063318 UTC PGM / RUN BY / DATE 
SOURCE: data/tum%W%D.sp3                                    COMMENT             
                                                            END OF HEADER       
E12 2012 11 16 14  0  0  .521875525680E-03  .851096923077E-10  .000000000000E+00
      .800000000000E+01  .588096770362E+01  .333299891973E-08  .253180165468E+01
      .323403263094E-06  .736685445185E-04  .104423438212E-04  .544060969797E+04
      .482400000000E+06 -.515451918767E-07  .119197000040E+01 -.350002672168E-07
      .956222391624E+00  .115784291238E+03 -.296055590874E+01 -.553995782803E-08
      .716369656834E-09  .000000000000E+00  .171400000000E+04  .000000000000E+00
      .240000000000E+01  .000000000000E+00  .000000000000E+00  .000000000000E+00
      .486000000000E+06  .000000000000E+00
E11 2012 11 16 16  0  0  .499614246400E-03  .386191717949E-09  .000000000000E+00
      .900000000000E+01 -.158236895050E+00  .331261048896E-08 -.183482513377E+01
      .812825178390E-07  .119545189267E-03  .103950280051E-04  .544061401060E+04
      .489600000000E+06 -.323447378489E-07  .119195651164E+01 -.484768967065E-07
      .956215966708E+00  .117836873620E+03  .159473047407E+01 -.553126056722E-08
      .739468520714E-09  .000000000000E+00  .171400000000E+04  .000000000000E+00
      .240000000000E+01  .000000000000E+00  .000000000000E+00  .000000000000E+00
      .493200000000E+06  .000000000000E+00
E12 2012 11 16 16  0  0  .522488124320E-03  .850646794872E-10  .000000000000E+00
      .900000000000E+01 -.358349765676E+01  .326418457117E-08 -.286598899902E+01
     -.110044510798E-06  .743867761076E-04  .107257447372E-04  .544060839996E+04
      .489600000000E+06  .364657584683E-07  .119193047960E+01 -.352301634318E-07
      .956228108733E+00  .111906685435E+03 -.295332369616E+01 -.544191219305E-08
      .716426903496E-09  .000000000000E+00  .171400000000E+04  .000000000000E+00
      .240000000000E+01  .000000000000E+00  .000000000000E+00  .000000000000E+00
      .493200000000E+06  .000000000000E+00
E11 2012 11 16 18  0  0  .502394767720E-03  .386186997436E-09  .000000000000E+00
      .100000000000E+02 -.137007353723E+02  .327251611750E-08 -.958193961487E+00
     -.596394206533E-06  .118605337025E-03  .109626563692E-04  .544060976836E+04
      .496800000000E+06  .499663662091E-07  .119191717739E+01 -.158085331453E-07
      .956221773952E+00  .108266587354E+03  .161072471899E+01 -.543793377336E-08
      .730015819591E-09  .000000000000E+00  .171400000000E+04  .000000000000E+00
      .240000000000E+01  .000000000000E+00  .000000000000E+00  .000000000000E+00
      .500400000000E+06  .000000000000E+00
E12 2012 11 16 18  0  0  .523100575400E-03  .850662948718E-10  .000000000000E+00
      .100000000000E+02 -.252678890728E+02  .329086124577E-08 -.199354107913E+01
     -.126770978970E-05  .769358764124E-04  .107476859978E-04  .544060232049E+04
      .496800000000E+06  .659483331921E-07  .119189123959E+01 -.454809904177E-08
      .956233273455E+00  .109863678023E+03 -.293314146563E+01 -.544199788218E-08
      .734667718108E-09  .000000000000E+00  .171400000000E+04  .000000000000E+00
      .240000000000E+01  .000000000000E+00  .000000000000E+00  .000000000000E+00
      .500400000000E+06  .000000000000E+00
E11 2012 11 16 20  0  0  .505175081040E-03  .386134971795E-09  .000000000000E+00
      .110000000000E+02 -.266421002912E+02  .322564932736E-08 -.759588092478E-01
     -.140407646612E-05  .117930926160E-03  .109309226808E-04  .544060728314E+04
      .504000000000E+06  .664711015495E-07  .119187791356E+01  .232245087094E-07
      .956227044029E+00  .104560644113E+03  .162111829496E+01 -.543846688868E-08
      .752591024831E-09  .000000000000E+00  .171400000000E+04  .000000000000E+00
      .240000000000E+01  .000000000000E+00  .000000000000E+00  .000000000000E+00
      .507600000000E+06  .000000000000E+00
E12 2012 11 16 20  0  0  .523712876080E-03  .850376282051E-10  .000000000000E+00
      .110000000000E+02 -.367484026611E+02  .311459622721E-08 -.105103041489E+01
     -.168433681628E-05  .770670596479E-04  .116276719440E-04  .544061026890E+04
      .504000000000E+06  .328925102490E-07  .119185161274E+01  .695986809374E-07
      .956238912932E+00  .851349020911E+02 -.298302352693E+01 -.542934093792E-08
      .804594487910E-09  .000000000000E+00  .171400000000E+04  .000000000000E+00
      .240000000000E+01  .000000000000E+00  .000000000000E+00  .000000000000E+00
      .507600000000E+06  .000000000000E+00
E11 2012 11 16 22  0  0  .507955444680E-03  .386167979487E-09  .000000000000E+00
      .120000000000E+02 -.384371189683E+02  .305842326793E-08  .811146605115E+00
     -.174766413997E-05  .121027344319E-03  .116313072149E-04  .544061374602E+04
      .511200000000E+06  .281842056053E-07  .119183851672E+01  .508790068011E-07
      .956232720504E+00  .843975533457E+02  .162663825086E+01 -.542039662516E-08
      .794597065006E-09  .000000000000E+00  .171400000000E+04  .000000000000E+00
      .240000000000E+01  .000000000000E+00  .000000000000E+00  .000000000000E+00
      .514800000000E+06  .000000000000E+00
E12 2012 11 16 22  0  0  .524325259400E-03  .850693692308E-10  .000000000000E+00
      .120000000000E+02 -.214722350529E+02  .317633646039E-08 -.179846802795E+00
     -.893704431298E-06  .743425089478E-04  .124627306360E-04  .544060373468E+04
      .511200000000E+06  .347250551398E-08  .119181251765E+01  .902840869346E-07
      .956244615161E+00  .682360430658E+02 -.296157987182E+01 -.545027948050E-08
      .803695943752E-09  .000000000000E+00  .171400000000E+04  .000000000000E+00
      .240000000000E+01  .000000000000E+00  .000000000000E+00  .000000000000E+00
      .514800000000E+06  .000000000000E+00
E11 2012 11 17  0  0  0  .510735837240E-03  .386127130769E-09  .000000000000E+00
      .130000000000E+02 -.228668194092E+02  .289242882394E-08  .172973964208E+01
     -.964635637175E-06  .119748136092E-03  .125887994483E-04  .544060680763E+04
      .518400000000E+06  .458466846003E-06  .119180007039E+01  .361562470017E-06
      .956240408499E+00  .655129091389E+02 -.468251444233E+01 -.503997226844E-08
      .721807080914E-09  .000000000000E+00  .171400000000E+04  .000000000000E+00
      .240000000000E+01  .000000000000E+00  .000000000000E+00  .000000000000E+00
      .522000000000E+06  .000000000000E+00
E12 2012 11 17  0  0  0  .524937758280E-03  .850491051282E-10  .000000000000E+00
      .130000000000E+02  .616982324167E+00  .292521875511E-08  .695931503501E+00
      .336083328379E-07  .773757950485E-04  .121325140241E-04  .544061048482E+04
      .518400000000E+06 -.454409533150E-06  .119177510662E+01  .326332231957E-06
      .956251276581E+00  .775149323655E+02 -.294473123085E+01 -.521354727896E-08
      .554149498861E-09  .000000000000E+00  .171400000000E+04  .000000000000E+00
      .240000000000E+01  .000000000000E+00  .000000000000E+00  .000000000000E+00
      .522000000000E+06  .000000000000E+00
